[{"OBJECT_NAME":"STARLINK-30813","OBJECT_ID":"2023-170H","EPOCH":"2026-03-08T10:45:26.792064","MEAN_MOTION":15.26795732,"ECCENTRICITY":0.00021909,"INCLINATION":43.0016,"RA_OF_ASC_NODE":200.8924,"ARG_OF_PERICENTER":276.2944,"MEAN_ANOMALY":83.7658,"EPHEMERIS_TYPE":0,"CLASSIFICATION_TYPE":"U","NORAD_CAT_ID":58213,"ELEMENT_SET_NO":999,"REV_AT_EPOCH":13011,"BSTAR":-0.001014739,"MEAN_MOTION_DOT":-0.00027426,"MEAN_MOTION_DDOT":0},{"OBJECT_NAME":"DELTA 1 R\/B(1)","OBJECT_ID":"1977-108B","EPOCH":"2026-03-09T17:09:28.687104","MEAN_MOTION":12.7159019,"ECCENTRICITY":0.11493958,"INCLINATION":28.2947,"RA_OF_ASC_NODE":96.6821,"ARG_OF_PERICENTER":61.5787,"MEAN_ANOMALY":309.5754,"EPHEMERIS_TYPE":0,"CLASSIFICATION_TYPE":"U","NORAD_CAT_ID":10490,"ELEMENT_SET_NO":999,"REV_AT_EPOCH":20703,"BSTAR":0.00020105003,"MEAN_MOTION_DOT":8.74e-6,"MEAN_MOTION_DDOT":0}]
